STARLINK-1313
1 25364C 20019E   21325.11787593 -.00001832  00000-0 -12278-3 0  3250
2 25364  53.0540 342.7061 0001428  65.0024  30.8404 15.06398969    12
